<?xml version="1.0" encoding="UTF-8"?>
<ndm xmlns:xsi="http://www.w3.org/2001/XMLSchema-instance" xsi:noNamespaceSchemaLocation="https://sanaregistry.org/r/ndmxml_unqualified/ndmxml-2.0.0-master-2.0.xsd">
<omm id="CCSDS_OMM_VERS" version="2.0">
<header><CREATION_DATE/><ORIGINATOR/></header><body><segment><metadata><OBJECT_NAME>GLOBALSTAR M067 [+]</OBJECT_NAME><OBJECT_ID>2007-048A</OBJECT_ID><CENTER_NAME>EARTH</CENTER_NAME><REF_FRAME>TEME</REF_FRAME><TIME_SYSTEM>UTC</TIME_SYSTEM><MEAN_ELEMENT_THEORY>SGP4</MEAN_ELEMENT_THEORY></metadata><data><meanElements><EPOCH>2023-10-10T12:04:32.751840</EPOCH><MEAN_MOTION>12.40632416</MEAN_MOTION><ECCENTRICITY>.0001563</ECCENTRICITY><INCLINATION>51.9752</INCLINATION><RA_OF_ASC_NODE>37.4060</RA_OF_ASC_NODE><ARG_OF_PERICENTER>107.0957</ARG_OF_PERICENTER><MEAN_ANOMALY>332.5939</MEAN_ANOMALY></meanElements><tleParameters><EPHEMERIS_TYPE>0</EPHEMERIS_TYPE><CLASSIFICATION_TYPE>U</CLASSIFICATION_TYPE><NORAD_CAT_ID>32263</NORAD_CAT_ID><ELEMENT_SET_NO>999</ELEMENT_SET_NO><REV_AT_EPOCH>73330</REV_AT_EPOCH><BSTAR>-.96436E-4</BSTAR><MEAN_MOTION_DOT>-.11E-5</MEAN_MOTION_DOT><MEAN_MOTION_DDOT>0</MEAN_MOTION_DDOT></tleParameters></data></segment></body></omm>
<omm id="CCSDS_OMM_VERS" version="2.0">
<header><CREATION_DATE/><ORIGINATOR/></header><body><segment><metadata><OBJECT_NAME>GLOBALSTAR M070 [+]</OBJECT_NAME><OBJECT_ID>2007-048B</OBJECT_ID><CENTER_NAME>EARTH</CENTER_NAME><REF_FRAME>TEME</REF_FRAME><TIME_SYSTEM>UTC</TIME_SYSTEM><MEAN_ELEMENT_THEORY>SGP4</MEAN_ELEMENT_THEORY></metadata><data><meanElements><EPOCH>2023-10-10T19:22:40.393344</EPOCH><MEAN_MOTION>12.62279645</MEAN_MOTION><ECCENTRICITY>.0000558</ECCENTRICITY><INCLINATION>51.9743</INCLINATION><RA_OF_ASC_NODE>203.1347</RA_OF_ASC_NODE><ARG_OF_PERICENTER>100.4079</ARG_OF_PERICENTER><MEAN_ANOMALY>298.6028</MEAN_ANOMALY></meanElements><tleParameters><EPHEMERIS_TYPE>0</EPHEMERIS_TYPE><CLASSIFICATION_TYPE>U</CLASSIFICATION_TYPE><NORAD_CAT_ID>32264</NORAD_CAT_ID><ELEMENT_SET_NO>999</ELEMENT_SET_NO><REV_AT_EPOCH>73595</REV_AT_EPOCH><BSTAR>.10931E-3</BSTAR><MEAN_MOTION_DOT>-.84E-6</MEAN_MOTION_DOT><MEAN_MOTION_DDOT>0</MEAN_MOTION_DDOT></tleParameters></data></segment></body></omm>
<omm id="CCSDS_OMM_VERS" version="2.0">
<header><CREATION_DATE/><ORIGINATOR/></header><body><segment><metadata><OBJECT_NAME>GLOBALSTAR M066 [+]</OBJECT_NAME><OBJECT_ID>2007-048C</OBJECT_ID><CENTER_NAME>EARTH</CENTER_NAME><REF_FRAME>TEME</REF_FRAME><TIME_SYSTEM>UTC</TIME_SYSTEM><MEAN_ELEMENT_THEORY>SGP4</MEAN_ELEMENT_THEORY></metadata><data><meanElements><EPOCH>2023-10-10T16:47:42.592128</EPOCH><MEAN_MOTION>12.62265836</MEAN_MOTION><ECCENTRICITY>.0001035</ECCENTRICITY><INCLINATION>51.9678</INCLINATION><RA_OF_ASC_NODE>65.5271</RA_OF_ASC_NODE><ARG_OF_PERICENTER>71.6607</ARG_OF_PERICENTER><MEAN_ANOMALY>30.9100</MEAN_ANOMALY></meanElements><tleParameters><EPHEMERIS_TYPE>0</EPHEMERIS_TYPE><CLASSIFICATION_TYPE>U</CLASSIFICATION_TYPE><NORAD_CAT_ID>32265</NORAD_CAT_ID><ELEMENT_SET_NO>999</ELEMENT_SET_NO><REV_AT_EPOCH>73820</REV_AT_EPOCH><BSTAR>.16563E-3</BSTAR><MEAN_MOTION_DOT>-.74E-6</MEAN_MOTION_DOT><MEAN_MOTION_DDOT>0</MEAN_MOTION_DDOT></tleParameters></data></segment></body></omm>
<omm id="CCSDS_OMM_VERS" version="2.0">
<header><CREATION_DATE/><ORIGINATOR/></header><body><segment><metadata><OBJECT_NAME>GLOBALSTAR M068 [-]</OBJECT_NAME><OBJECT_ID>2007-048D</OBJECT_ID><CENTER_NAME>EARTH</CENTER_NAME><REF_FRAME>TEME</REF_FRAME><TIME_SYSTEM>UTC</TIME_SYSTEM><MEAN_ELEMENT_THEORY>SGP4</MEAN_ELEMENT_THEORY></metadata><data><meanElements><EPOCH>2023-10-10T16:39:00.285120</EPOCH><MEAN_MOTION>12.62767638</MEAN_MOTION><ECCENTRICITY>.0000804</ECCENTRICITY><INCLINATION>51.9913</INCLINATION><RA_OF_ASC_NODE>18.3932</RA_OF_ASC_NODE><ARG_OF_PERICENTER>177.3876</ARG_OF_PERICENTER><MEAN_ANOMALY>329.4701</MEAN_ANOMALY></meanElements><tleParameters><EPHEMERIS_TYPE>0</EPHEMERIS_TYPE><CLASSIFICATION_TYPE>U</CLASSIFICATION_TYPE><NORAD_CAT_ID>32266</NORAD_CAT_ID><ELEMENT_SET_NO>999</ELEMENT_SET_NO><REV_AT_EPOCH>73979</REV_AT_EPOCH><BSTAR>.2074E-3</BSTAR><MEAN_MOTION_DOT>-.67E-6</MEAN_MOTION_DOT><MEAN_MOTION_DDOT>0</MEAN_MOTION_DDOT></tleParameters></data></segment></body></omm>
<omm id="CCSDS_OMM_VERS" version="2.0">
<header><CREATION_DATE/><ORIGINATOR/></header><body><segment><metadata><OBJECT_NAME>GLOBALSTAR M079 [+]</OBJECT_NAME><OBJECT_ID>2010-054A</OBJECT_ID><CENTER_NAME>EARTH</CENTER_NAME><REF_FRAME>TEME</REF_FRAME><TIME_SYSTEM>UTC</TIME_SYSTEM><MEAN_ELEMENT_THEORY>SGP4</MEAN_ELEMENT_THEORY></metadata><data><meanElements><EPOCH>2023-10-11T01:53:14.617824</EPOCH><MEAN_MOTION>12.62268633</MEAN_MOTION><ECCENTRICITY>.0000817</ECCENTRICITY><INCLINATION>52.0032</INCLINATION><RA_OF_ASC_NODE>212.2759</RA_OF_ASC_NODE><ARG_OF_PERICENTER>57.7942</ARG_OF_PERICENTER><MEAN_ANOMALY>16.9527</MEAN_ANOMALY></meanElements><tleParameters><EPHEMERIS_TYPE>0</EPHEMERIS_TYPE><CLASSIFICATION_TYPE>U</CLASSIFICATION_TYPE><NORAD_CAT_ID>37188</NORAD_CAT_ID><ELEMENT_SET_NO>999</ELEMENT_SET_NO><REV_AT_EPOCH>59945</REV_AT_EPOCH><BSTAR>.25232E-4</BSTAR><MEAN_MOTION_DOT>-.99E-6</MEAN_MOTION_DOT><MEAN_MOTION_DDOT>0</MEAN_MOTION_DDOT></tleParameters></data></segment></body></omm>
<omm id="CCSDS_OMM_VERS" version="2.0">
<header><CREATION_DATE/><ORIGINATOR/></header><body><segment><metadata><OBJECT_NAME>GLOBALSTAR M074 [+]</OBJECT_NAME><OBJECT_ID>2010-054B</OBJECT_ID><CENTER_NAME>EARTH</CENTER_NAME><REF_FRAME>TEME</REF_FRAME><TIME_SYSTEM>UTC</TIME_SYSTEM><MEAN_ELEMENT_THEORY>SGP4</MEAN_ELEMENT_THEORY></metadata><data><meanElements><EPOCH>2023-10-10T22:42:52.521408</EPOCH><MEAN_MOTION>12.62270445</MEAN_MOTION><ECCENTRICITY>.0000663</ECCENTRICITY><INCLINATION>52.0007</INCLINATION><RA_OF_ASC_NODE>212.0958</RA_OF_ASC_NODE><ARG_OF_PERICENTER>70.8658</ARG_OF_PERICENTER><MEAN_ANOMALY>3.1637</MEAN_ANOMALY></meanElements><tleParameters><EPHEMERIS_TYPE>0</EPHEMERIS_TYPE><CLASSIFICATION_TYPE>U</CLASSIFICATION_TYPE><NORAD_CAT_ID>37189</NORAD_CAT_ID><ELEMENT_SET_NO>999</ELEMENT_SET_NO><REV_AT_EPOCH>59936</REV_AT_EPOCH><BSTAR>-.76898E-5</BSTAR><MEAN_MOTION_DOT>-.105E-5</MEAN_MOTION_DOT><MEAN_MOTION_DDOT>0</MEAN_MOTION_DDOT></tleParameters></data></segment></body></omm>
<omm id="CCSDS_OMM_VERS" version="2.0">
<header><CREATION_DATE/><ORIGINATOR/></header><body><segment><metadata><OBJECT_NAME>GLOBALSTAR M076 [+]</OBJECT_NAME><OBJECT_ID>2010-054C</OBJECT_ID><CENTER_NAME>EARTH</CENTER_NAME><REF_FRAME>TEME</REF_FRAME><TIME_SYSTEM>UTC</TIME_SYSTEM><MEAN_ELEMENT_THEORY>SGP4</MEAN_ELEMENT_THEORY></metadata><data><meanElements><EPOCH>2023-10-11T05:26:54.153888</EPOCH><MEAN_MOTION>12.62261994</MEAN_MOTION><ECCENTRICITY>.000122</ECCENTRICITY><INCLINATION>52.0022</INCLINATION><RA_OF_ASC_NODE>211.3568</RA_OF_ASC_NODE><ARG_OF_PERICENTER>77.1861</ARG_OF_PERICENTER><MEAN_ANOMALY>72.4350</MEAN_ANOMALY></meanElements><tleParameters><EPHEMERIS_TYPE>0</EPHEMERIS_TYPE><CLASSIFICATION_TYPE>U</CLASSIFICATION_TYPE><NORAD_CAT_ID>37190</NORAD_CAT_ID><ELEMENT_SET_NO>999</ELEMENT_SET_NO><REV_AT_EPOCH>59947</REV_AT_EPOCH><BSTAR>.40434E-4</BSTAR><MEAN_MOTION_DOT>-.97E-6</MEAN_MOTION_DOT><MEAN_MOTION_DDOT>0</MEAN_MOTION_DDOT></tleParameters></data></segment></body></omm>
<omm id="CCSDS_OMM_VERS" version="2.0">
<header><CREATION_DATE/><ORIGINATOR/></header><body><segment><metadata><OBJECT_NAME>GLOBALSTAR M077 [+]</OBJECT_NAME><OBJECT_ID>2010-054D</OBJECT_ID><CENTER_NAME>EARTH</CENTER_NAME><REF_FRAME>TEME</REF_FRAME><TIME_SYSTEM>UTC</TIME_SYSTEM><MEAN_ELEMENT_THEORY>SGP4</MEAN_ELEMENT_THEORY></metadata><data><meanElements><EPOCH>2023-10-11T03:19:09.126912</EPOCH><MEAN_MOTION>12.62267295</MEAN_MOTION><ECCENTRICITY>.00008</ECCENTRICITY><INCLINATION>52.0058</INCLINATION><RA_OF_ASC_NODE>168.3085</RA_OF_ASC_NODE><ARG_OF_PERICENTER>81.5606</ARG_OF_PERICENTER><MEAN_ANOMALY>83.4680</MEAN_ANOMALY></meanElements><tleParameters><EPHEMERIS_TYPE>0</EPHEMERIS_TYPE><CLASSIFICATION_TYPE>U</CLASSIFICATION_TYPE><NORAD_CAT_ID>37191</NORAD_CAT_ID><ELEMENT_SET_NO>999</ELEMENT_SET_NO><REV_AT_EPOCH>60021</REV_AT_EPOCH><BSTAR>.13089E-3</BSTAR><MEAN_MOTION_DOT>-.8E-6</MEAN_MOTION_DOT><MEAN_MOTION_DDOT>0</MEAN_MOTION_DDOT></tleParameters></data></segment></body></omm>

</ndm>
