GLOBALSTAR M067 [+]     
1 32263U 07048A   23283.50315685 -.00000110  00000+0 -96436-4 0  9991
2 32263  51.9752  37.4060 0001563 107.0957 332.5939 12.40632416733300
GLOBALSTAR M070 [+]     
1 32264U 07048B   23283.80741196 -.00000084  00000+0  10931-3 0  9999
2 32264  51.9743 203.1347 0000558 100.4079 298.6028 12.62279645735955
GLOBALSTAR M066 [+]     
1 32265U 07048C   23283.69979852 -.00000074  00000+0  16563-3 0  9995
2 32265  51.9678  65.5271 0001035  71.6607  30.9100 12.62265836738202
GLOBALSTAR M068 [-]     
1 32266U 07048D   23283.69375330 -.00000067  00000+0  20740-3 0  9991
2 32266  51.9913  18.3932 0000804 177.3876 329.4701 12.62767638739795
GLOBALSTAR M079 [+]     
1 37188U 10054A   23284.07864141 -.00000099  00000+0  25232-4 0  9993
2 37188  52.0032 212.2759 0000817  57.7942  16.9527 12.62268633599450
GLOBALSTAR M074 [+]     
1 37189U 10054B   23283.94644122 -.00000105  00000+0 -76898-5 0  9998
2 37189  52.0007 212.0958 0000663  70.8658   3.1637 12.62270445599365
GLOBALSTAR M076 [+]     
1 37190U 10054C   23284.22701567 -.00000097  00000+0  40434-4 0  9994
2 37190  52.0022 211.3568 0001220  77.1861  72.4350 12.62261994599471
GLOBALSTAR M077 [+]     
1 37191U 10054D   23284.13830008 -.00000080  00000+0  13089-3 0  9995
2 37191  52.0058 168.3085 0000800  81.5606  83.4680 12.62267295600218
